[{"OBJECT_NAME":"OBJECT B","OBJECT_ID":"2022-023B","EPOCH":"2026-03-09T22:47:53.401632","MEAN_MOTION":15.18262382,"ECCENTRICITY":0.00937159,"INCLINATION":63.476,"RA_OF_ASC_NODE":246.6999,"ARG_OF_PERICENTER":346.6129,"MEAN_ANOMALY":13.2499,"EPHEMERIS_TYPE":0,"CLASSIFICATION_TYPE":"U","NORAD_CAT_ID":51947,"ELEMENT_SET_NO":999,"REV_AT_EPOCH":22265,"BSTAR":0.00086643699,"MEAN_MOTION_DOT":0.00019848,"MEAN_MOTION_DDOT":0},{"OBJECT_NAME":"STARLINK-34419","OBJECT_ID":"2025-129A","EPOCH":"2026-03-09T10:09:51.623424","MEAN_MOTION":14.98328443,"ECCENTRICITY":0.00031614,"INCLINATION":70.0005,"RA_OF_ASC_NODE":75.2708,"ARG_OF_PERICENTER":269.3524,"MEAN_ANOMALY":90.7273,"EPHEMERIS_TYPE":0,"CLASSIFICATION_TYPE":"U","NORAD_CAT_ID":64412,"ELEMENT_SET_NO":999,"REV_AT_EPOCH":4126,"BSTAR":0.00033187952,"MEAN_MOTION_DOT":3.869e-5,"MEAN_MOTION_DDOT":0}]
